{"venues":[[{"id":10350,"name":"Sandbar","distance":0.1,"address":"3064 Grand Ave","crossstreet":null,"city":"Miami","state":"FL","zip":33133,"phone":null,"geolat":25.7281,"geolong":-80.2428,"stats":{"checkins":18}},{"id":10287,"name":"Mr. Moe's","distance":0.1,"address":"3131 Commodore Plaza","crossstreet":null,"city":"Miami","state":"FL","zip":33133,"phone":null,"geolat":25.7274,"geolong":-80.2441,"stats":{"checkins":6}},{"id":18315,"name":"Barracuda Bar","distance":0.1,"address":"3035 Fuller St","crossstreet":"at Grand Ave","city":"Miami","state":"FL","zip":33133,"phone":"305 448-1144","geolat":25.7276,"geolong":-80.2432,"stats":{"checkins":4}},{"id":45598,"name":"Boardwalk Tavern & Pizzeria","distance":0.1,"address":"3415 Main Hwy","crossstreet":null,"city":"Coconut Grove","state":"FL","zip":33133,"phone":"305-567-0080","geolat":25.7277,"geolong":-80.2427,"stats":{"checkins":3}}],[{"id":88408,"name":"Barracadu Bar & Grill }i{","distance":0.1,"address":"3035 Fuller St,","crossstreet":"btw Main Hwy and Grand ave","city":"Miami","state":"FL","zip":33133,"phone":"(305) 448-1144","geolat":25.7276,"geolong":-80.2432},{"id":85556,"name":"Barracadu Coconut Grove}i{","distance":0.1,"address":"3035 Fuller St","crossstreet":"btw Main Hwy and Grand ave","city":"Miami","state":"FL","zip":null,"phone":"(305) 448-1144","geolat":25.7276,"geolong":-80.2432},{"id":10147,"name":"Don Quixote","distance":0.1,"address":"3120 Commodore Plaza","crossstreet":null,"city":"Miami","state":"FL","zip":33133,"phone":null,"geolat":25.7271,"geolong":-80.2447},{"id":10219,"name":"Hungry Sailor","distance":0.1,"address":"3424 Main Highway","crossstreet":null,"city":"Miami","state":"FL","zip":33133,"phone":null,"geolat":25.7276,"geolong":-80.2428},{"id":10391,"name":"Tavern In The Grove","distance":0.1,"address":"3416 Main Highway","crossstreet":null,"city":"Miami","state":"FL","zip":33133,"phone":null,"geolat":25.7276,"geolong":-80.2427},{"id":10356,"name":"Senor Frogs","distance":0.1,"address":"3480 Main Highway","crossstreet":null,"city":"Miami","state":"FL","zip":33133,"phone":null,"geolat":25.7267,"geolong":-80.2442},{"id":10252,"name":"Life","distance":0.2,"address":"3342 Virginia St","crossstreet":null,"city":"Miami","state":"FL","zip":33133,"phone":null,"geolat":25.7289,"geolong":-80.2415},{"id":84676,"name":"InfiniHQ","distance":0.2,"address":"3339 Virginia St","crossstreet":"at Oak Ave","city":"Miami","state":"FL","zip":33133,"phone":3057284641,"geolat":25.7292,"geolong":-80.2413},{"id":10173,"name":"Flavour","distance":0.2,"address":"2895 McFarlane RD.","crossstreet":null,"city":"Miami","state":"FL","zip":33133,"phone":null,"geolat":25.7275,"geolong":-80.2411},{"id":10390,"name":"Taurus Chops","distance":0.2,"address":"3540 Main Highway","crossstreet":null,"city":"Miami","state":"FL","zip":33133,"phone":null,"geolat":25.7251,"geolong":-80.245},{"id":10305,"name":"Oxygen Lounge","distance":0.2,"address":"2911 Grand Ave","crossstreet":null,"city":"Miami","state":"FL","zip":33133,"phone":null,"geolat":25.7285,"geolong":-80.2406},{"id":10331,"name":"Quench","distance":0.3,"address":"2801 Florida Ave","crossstreet":null,"city":"Miami","state":"FL","zip":33133,"phone":"305 448-8150","geolat":25.7291,"geolong":-80.2395},{"id":10224,"name":"Improv Comedy Club","distance":0.3,"address":"3390 Mary St","crossstreet":null,"city":"Miami","state":"FL","zip":33133,"phone":null,"geolat":25.7282,"geolong":-80.2393},{"id":80526,"name":"The Jewlicious Pad","distance":0.4,"address":"Grand Ave","crossstreet":null,"city":"Coconut Grove","state":"FL","zip":null,"phone":null,"twitter":"jewgonewild","geolat":25.7278,"geolong":-80.2499},{"id":10124,"name":"Cocont Grove Expo Center","distance":0.4,"address":"2700 south bayshore drive","crossstreet":null,"city":"Miami","state":"FL","zip":33133,"phone":null,"geolat":25.7282,"geolong":-80.2379},{"id":66946,"name":"Flordia","distance":0.4,"address":"650 williamstreet","crossstreet":"Sr mia","city":"Miami","state":"FL","zip":null,"phone":null,"geolat":25.7263,"geolong":-80.2511},{"id":83833,"name":"Doubletree Coconut Grove","distance":0.6,"address":"2649 South Bayshore Drive","crossstreet":null,"city":"Miami","state":"FL","zip":33133,"phone":"305-858-2500","geolat":25.7312,"geolong":-80.2353},{"id":86452,"name":"Scottys Landing","distance":0.6,"address":"3381 pan American drive","crossstreet":null,"city":"Coconut grove","state":"FL","zip":33133,"phone":null,"geolat":25.7278,"geolong":-80.2342},{"id":18241,"name":"Monty's","distance":0.8,"address":"2550 South Bayshore Drive","crossstreet":null,"city":"Miami","state":"FL","zip":33133,"phone":"305 858-1431","geolat":25.7321,"geolong":-80.2326},{"id":85554,"name":"Berries in the Grove }i{","distance":0.8,"address":"2884 S.W. 27th Ave","crossstreet":"btw US1 and Coconut ave","city":"Miami","state":"FL","zip":33133,"phone":"(305) 448-2111","geolat":25.7382,"geolong":-80.2381}]]}